start=new Date('2022-08-24T00:00:00.000Z').valueOf();
sats=[{"MEAN_MOTION":"15.06392267","EPHEMERIS_TYPE":"0","OBJECT_TYPE":"PAYLOAD","FILE":"3545624","MEAN_MOTION_DOT":"0.00001704","MEAN_ANOMALY":"289.0016","TLE_LINE2":"2 47371  53.0551 109.8341 0001671  71.1154 289.0016 15.06392267 88039","COUNTRY_CODE":"US","ARG_OF_PERICENTER":"71.1154","GP_ID":"210859030","LAUNCH_DATE":"2021-01-20","TLE_LINE1":"1 47371U 21005Y   22235.86516021  .00001704  00000-0  13327-3 0  9994","RCS_SIZE":"LARGE","NORAD_CAT_ID":"47371","EPOCH":"2022-08-23T20:45:49.842144","REV_AT_EPOCH":"8803","DECAY_DATE":null,"PERIOD":"95.593","ECCENTRICITY":"0.00016710","TIME_SYSTEM":"UTC","MEAN_MOTION_DDOT":"0.0000000000000","BSTAR":"0.00013327000000","SEMIMAJOR_AXIS":"6925.372","INCLINATION":"53.0551","SITE":"AFETR","RA_OF_ASC_NODE":"109.8341","OBJECT_NAME":"STARLINK-2088","OBJECT_ID":"2021-005Y","CLASSIFICATION_TYPE":"U","PERIAPSIS":"546.080","APOAPSIS":"548.394","REF_FRAME":"TEME","ELEMENT_SET_NO":"999","CENTER_NAME":"EARTH","MEAN_ELEMENT_THEORY":"SGP4"},{"PERIOD":"95.593","ECCENTRICITY":"0.00015850","NORAD_CAT_ID":"47372","REV_AT_EPOCH":"8808","EPOCH":"2022-08-23T19:03:03.402432","DECAY_DATE":null,"LAUNCH_DATE":"2021-01-20","TLE_LINE1":"1 47372U 21005Z   22235.79378938  .00001023  00000-0  87619-4 0  9990","RCS_SIZE":"LARGE","ARG_OF_PERICENTER":"70.8616","GP_ID":"210859278","COUNTRY_CODE":"US","FILE":"3545624","OBJECT_TYPE":"PAYLOAD","MEAN_MOTION_DOT":"0.00001023","TLE_LINE2":"2 47372  53.0556 105.4676 0001585  70.8616 289.2544 15.06382408 88080","MEAN_ANOMALY":"289.2544","MEAN_MOTION":"15.06382408","EPHEMERIS_TYPE":"0","ELEMENT_SET_NO":"999","CENTER_NAME":"EARTH","MEAN_ELEMENT_THEORY":"SGP4","PERIAPSIS":"546.170","APOAPSIS":"548.365","REF_FRAME":"TEME","CLASSIFICATION_TYPE":"U","RA_OF_ASC_NODE":"105.4676","OBJECT_NAME":"STARLINK-2089","OBJECT_ID":"2021-005Z","INCLINATION":"53.0556","SITE":"AFETR","MEAN_MOTION_DDOT":"0.0000000000000","BSTAR":"0.00008761900000","SEMIMAJOR_AXIS":"6925.402","TIME_SYSTEM":"UTC"},{"MEAN_MOTION_DDOT":"0.0000000000000","BSTAR":"0.00045289000000","SEMIMAJOR_AXIS":"6925.311","INCLINATION":"53.0541","SITE":"AFETR","TIME_SYSTEM":"UTC","PERIAPSIS":"546.057","APOAPSIS":"548.295","REF_FRAME":"TEME","ELEMENT_SET_NO":"999","CENTER_NAME":"EARTH","MEAN_ELEMENT_THEORY":"SGP4","RA_OF_ASC_NODE":"109.8345","OBJECT_NAME":"STARLINK-2092","OBJECT_ID":"2021-005AA","CLASSIFICATION_TYPE":"U","COUNTRY_CODE":"US","MEAN_MOTION":"15.06412246","EPHEMERIS_TYPE":"0","FILE":"3545624","OBJECT_TYPE":"PAYLOAD","MEAN_MOTION_DOT":"0.00006473","MEAN_ANOMALY":"288.3053","TLE_LINE2":"2 47373  53.0541 109.8345 0001616  71.8111 288.3053 15.06412246 88036","NORAD_CAT_ID":"47373","EPOCH":"2022-08-23T20:40:31.833984","REV_AT_EPOCH":"8803","DECAY_DATE":null,"PERIOD":"95.591","ECCENTRICITY":"0.00016160","GP_ID":"210860531","ARG_OF_PERICENTER":"71.8111","LAUNCH_DATE":"2021-01-20","TLE_LINE1":"1 47373U 21005AA  22235.86147956  .00006473  00000-0  45289-3 0  9993","RCS_SIZE":"LARGE"},{"ARG_OF_PERICENTER":"79.0236","GP_ID":"210860774","RCS_SIZE":"LARGE","TLE_LINE1":"1 47374U 21005AB  22235.88264756  .00000973  00000-0  84232-4 0  9995","LAUNCH_DATE":"2021-01-20","DECAY_DATE":null,"EPOCH":"2022-08-23T21:11:00.749184","REV_AT_EPOCH":"8803","NORAD_CAT_ID":"47374","ECCENTRICITY":"0.00015260","PERIOD":"95.593","EPHEMERIS_TYPE":"0","MEAN_MOTION":"15.06392802","TLE_LINE2":"2 47374  53.0548 109.7322 0001526  79.0236 281.0925 15.06392802 88039","MEAN_ANOMALY":"281.0925","MEAN_MOTION_DOT":"0.00000973","OBJECT_TYPE":"PAYLOAD","FILE":"3545624","COUNTRY_CODE":"US","OBJECT_ID":"2021-005AB","OBJECT_NAME":"STARLINK-2093","RA_OF_ASC_NODE":"109.7322","CLASSIFICATION_TYPE":"U","REF_FRAME":"TEME","PERIAPSIS":"546.179","APOAPSIS":"548.292","MEAN_ELEMENT_THEORY":"SGP4","CENTER_NAME":"EARTH","ELEMENT_SET_NO":"999","TIME_SYSTEM":"UTC","SEMIMAJOR_AXIS":"6925.371","BSTAR":"0.00008423200000","MEAN_MOTION_DDOT":"0.0000000000000","SITE":"AFETR","INCLINATION":"53.0548"},{"TIME_SYSTEM":"UTC","BSTAR":"0.00006976600000","MEAN_MOTION_DDOT":"0.0000000000000","SEMIMAJOR_AXIS":"6925.379","INCLINATION":"53.0541","SITE":"AFETR","OBJECT_ID":"2021-005AC","OBJECT_NAME":"STARLINK-2094","RA_OF_ASC_NODE":"109.7245","CLASSIFICATION_TYPE":"U","REF_FRAME":"TEME","PERIAPSIS":"546.175","APOAPSIS":"548.314","ELEMENT_SET_NO":"999","MEAN_ELEMENT_THEORY":"SGP4","CENTER_NAME":"EARTH","EPHEMERIS_TYPE":"0","MEAN_MOTION":"15.06389962","FILE":"3545624","OBJECT_TYPE":"PAYLOAD","MEAN_ANOMALY":"281.5507","TLE_LINE2":"2 47375  53.0541 109.7245 0001544  78.5656 281.5507 15.06389962 88031","MEAN_MOTION_DOT":"0.00000758","COUNTRY_CODE":"US","ARG_OF_PERICENTER":"78.5656","GP_ID":"210859530","TLE_LINE1":"1 47375U 21005AC  22235.88728458  .00000758  00000-0  69766-4 0  9996","LAUNCH_DATE":"2021-01-20","RCS_SIZE":"LARGE","NORAD_CAT_ID":"47375","EPOCH":"2022-08-23T21:17:41.387712","REV_AT_EPOCH":"8803","DECAY_DATE":null,"PERIOD":"95.593","ECCENTRICITY":"0.00015440"},{"COUNTRY_CODE":"US","MEAN_MOTION":"15.06399210","EPHEMERIS_TYPE":"0","MEAN_MOTION_DOT":"0.00003557","MEAN_ANOMALY":"285.8808","TLE_LINE2":"2 47376  53.0545 109.7089 0001632  74.2361 285.8808 15.06399210 88034","OBJECT_TYPE":"PAYLOAD","FILE":"3545624","DECAY_DATE":null,"NORAD_CAT_ID":"47376","EPOCH":"2022-08-23T21:22:59.148768","REV_AT_EPOCH":"8803","ECCENTRICITY":"0.00016320","PERIOD":"95.592","GP_ID":"210859778","ARG_OF_PERICENTER":"74.2361","RCS_SIZE":"LARGE","LAUNCH_DATE":"2021-01-20","TLE_LINE1":"1 47376U 21005AD  22235.89096237  .00003557  00000-0  25755-3 0  9990","SEMIMAJOR_AXIS":"6925.351","MEAN_MOTION_DDOT":"0.0000000000000","BSTAR":"0.00025755000000","SITE":"AFETR","INCLINATION":"53.0545","TIME_SYSTEM":"UTC","APOAPSIS":"548.346","PERIAPSIS":"546.086","REF_FRAME":"TEME","CENTER_NAME":"EARTH","MEAN_ELEMENT_THEORY":"SGP4","ELEMENT_SET_NO":"999","RA_OF_ASC_NODE":"109.7089","OBJECT_ID":"2021-005AD","OBJECT_NAME":"STARLINK-2096","CLASSIFICATION_TYPE":"U"},{"COUNTRY_CODE":"US","TLE_LINE2":"2 47377  53.0530 109.7793 0001469  83.3559 276.7597 15.06401474 88039","MEAN_ANOMALY":"276.7597","MEAN_MOTION_DOT":"0.00004126","FILE":"3545624","OBJECT_TYPE":"PAYLOAD","EPHEMERIS_TYPE":"0","MEAN_MOTION":"15.06401474","ECCENTRICITY":"0.00014690","PERIOD":"95.592","DECAY_DATE":null,"REV_AT_EPOCH":"8803","EPOCH":"2022-08-23T21:01:45.542784","NORAD_CAT_ID":"47377","RCS_SIZE":"LARGE","TLE_LINE1":"1 47377U 21005AE  22235.87622156  .00004126  00000-0  29569-3 0  9994","LAUNCH_DATE":"2021-01-20","GP_ID":"210860032","ARG_OF_PERICENTER":"83.3559","SITE":"AFETR","INCLINATION":"53.0530","SEMIMAJOR_AXIS":"6925.344","BSTAR":"0.00029569000000","MEAN_MOTION_DDOT":"0.0000000000000","TIME_SYSTEM":"UTC","MEAN_ELEMENT_THEORY":"SGP4","CENTER_NAME":"EARTH","ELEMENT_SET_NO":"999","REF_FRAME":"TEME","APOAPSIS":"548.226","PERIAPSIS":"546.192","CLASSIFICATION_TYPE":"U","OBJECT_NAME":"STARLINK-2097","OBJECT_ID":"2021-005AE","RA_OF_ASC_NODE":"109.7793"},{"MEAN_MOTION":"15.06397508","EPHEMERIS_TYPE":"0","MEAN_MOTION_DOT":"0.00000264","TLE_LINE2":"2 47378  53.0556  70.1161 0001555  85.6154 274.5013 15.06397508 88581","MEAN_ANOMALY":"274.5013","OBJECT_TYPE":"PAYLOAD","FILE":"3545624","COUNTRY_CODE":"US","ARG_OF_PERICENTER":"85.6154","GP_ID":"210860275","RCS_SIZE":"LARGE","LAUNCH_DATE":"2021-01-20","TLE_LINE1":"1 47378U 21005AF  22235.80249649  .00000264  00000-0  36629-4 0  9995","DECAY_DATE":null,"EPOCH":"2022-08-23T19:15:35.696736","NORAD_CAT_ID":"47378","REV_AT_EPOCH":"8858","ECCENTRICITY":"0.00015550","PERIOD":"95.592","TIME_SYSTEM":"UTC","SEMIMAJOR_AXIS":"6925.356","MEAN_MOTION_DDOT":"0.0000000000000","BSTAR":"0.00003662900000","SITE":"AFETR","INCLINATION":"53.0556","RA_OF_ASC_NODE":"70.1161","OBJECT_NAME":"STARLINK-2098","OBJECT_ID":"2021-005AF","CLASSIFICATION_TYPE":"U","PERIAPSIS":"546.144","APOAPSIS":"548.298","REF_FRAME":"TEME","CENTER_NAME":"EARTH","MEAN_ELEMENT_THEORY":"SGP4","ELEMENT_SET_NO":"999"},{"TIME_SYSTEM":"UTC","INCLINATION":"53.0550","SITE":"AFETR","MEAN_MOTION_DDOT":"0.0000000000000","BSTAR":"0.00007225900000","SEMIMAJOR_AXIS":"6925.347","CLASSIFICATION_TYPE":"U","RA_OF_ASC_NODE":"70.0835","OBJECT_NAME":"STARLINK-2099","OBJECT_ID":"2021-005AG","ELEMENT_SET_NO":"999","CENTER_NAME":"EARTH","MEAN_ELEMENT_THEORY":"SGP4","PERIAPSIS":"546.150","APOAPSIS":"548.274","REF_FRAME":"TEME","OBJECT_TYPE":"PAYLOAD","FILE":"3545624","MEAN_MOTION_DOT":"0.00000795","TLE_LINE2":"2 47379  53.0550  70.0835 0001534  75.6977 284.4183 15.06400466 88588","MEAN_ANOMALY":"284.4183","MEAN_MOTION":"15.06400466","EPHEMERIS_TYPE":"0","COUNTRY_CODE":"US","LAUNCH_DATE":"2021-01-20","TLE_LINE1":"1 47379U 21005AG  22235.80987422  .00000795  00000-0  72259-4 0  9992","RCS_SIZE":"LARGE","GP_ID":"210859031","ARG_OF_PERICENTER":"75.6977","PERIOD":"95.592","ECCENTRICITY":"0.00015340","REV_AT_EPOCH":"8858","NORAD_CAT_ID":"47379","EPOCH":"2022-08-23T19:26:13.132608","DECAY_DATE":null},{"CLASSIFICATION_TYPE":"U","RA_OF_ASC_NODE":"79.9326","OBJECT_NAME":"STARLINK-2100","OBJECT_ID":"2021-005AH","ELEMENT_SET_NO":"999","CENTER_NAME":"EARTH","MEAN_ELEMENT_THEORY":"SGP4","APOAPSIS":"548.249","PERIAPSIS":"546.195","REF_FRAME":"TEME","TIME_SYSTEM":"UTC","INCLINATION":"53.0558","SITE":"AFETR","MEAN_MOTION_DDOT":"0.0000000000000","BSTAR":"0.00008721700000","SEMIMAJOR_AXIS":"6925.357","LAUNCH_DATE":"2021-01-20","TLE_LINE1":"1 47380U 21005AH  22235.83843962  .00001018  00000-0  87217-4 0  9996","RCS_SIZE":"LARGE","ARG_OF_PERICENTER":"76.2931","GP_ID":"210859279","PERIOD":"95.592","ECCENTRICITY":"0.00014830","NORAD_CAT_ID":"47380","REV_AT_EPOCH":"8845","EPOCH":"2022-08-23T20:07:21.183168","DECAY_DATE":null,"OBJECT_TYPE":"PAYLOAD","FILE":"3545624","MEAN_MOTION_DOT":"0.00001018","TLE_LINE2":"2 47380  53.0558  79.9326 0001483  76.2931 283.8223 15.06397302 88459","MEAN_ANOMALY":"283.8223","MEAN_MOTION":"15.06397302","EPHEMERIS_TYPE":"0","COUNTRY_CODE":"US"}];
